{"type": "FeatureCollection", "features": [ {"type": "Feature", "properties": {"norad_id": 34001, "name": "COSMOS 2251 DEB", "group": "cosmos-2251-debris", "lat": -47.798094116848816, "lon": -115.04241473482018, "alt_km": 762.2855353520454, "timestamp": "2025-12-22T15:43:49.402878+00:00", "meta": {"OBJECT_NAME": "COSMOS 2251 DEB", "OBJECT_ID": "1993-036GL", "EPOCH": "2025-12-22T04:59:45.070656", "MEAN_MOTION": 14.3710915, "ECCENTRICITY": 0.00203654, "INCLINATION": 74.0388, "RA_OF_ASC_NODE": 264.1774, "ARG_OF_PERICENTER": 343.3863, "MEAN_ANOMALY": 173.3444, "EPHEMERIS_TYPE": 0, "CLASSIFICATION_TYPE": "U", "NORAD_CAT_ID": 34001, "ELEMENT_SET_NO": 999, "REV_AT_EPOCH": 88282, "BSTAR": 0.0001697056, "MEAN_MOTION_DOT": 4.79e-06, "MEAN_MOTION_DDOT": 0}, "tle": {"line1": "1 34001U 93036GL  25356.20816054  .00000479  00000+0  16971-3 0  9992", "line2": "2 34001  74.0388 264.1774 0020365 343.3863 173.3444 14.37109150882822"}}, "geometry": {"type": "Point", "coordinates": [-115.04241473482018, -47.798094116848816]}}, {"type": "Feature", "properties": {"norad_id": 34003, "name": "COSMOS 2251 DEB", "group": "cosmos-2251-debris", "lat": 62.54662114717497, "lon": 55.12518211867934, "alt_km": 952.6123185290153, "timestamp": "2025-12-22T15:43:49.402888+00:00", "meta": {"OBJECT_NAME": "COSMOS 2251 DEB", "OBJECT_ID": "1993-036GN", "EPOCH": "2025-12-21T04:31:05.940480", "MEAN_MOTION": 13.84194066, "ECCENTRICITY": 0.02749729, "INCLINATION": 74.0776, "RA_OF_ASC_NODE": 270.923, "ARG_OF_PERICENTER": 21.0006, "MEAN_ANOMALY": 340.2152, "EPHEMERIS_TYPE": 0, "CLASSIFICATION_TYPE": "U", "NORAD_CAT_ID": 34003, "ELEMENT_SET_NO": 999, "REV_AT_EPOCH": 84542, "BSTAR": 0.0013455154, "MEAN_MOTION_DOT": 1.989e-05, "MEAN_MOTION_DDOT": 0}, "tle": {"line1": "1 34003U 93036GN  25355.18826320  .00001989  00000+0  13455-2 0  9997", "line2": "2 34003  74.0776 270.9230 0274972  21.0006 340.2152 13.84194066845428"}}, "geometry": {"type": "Point", "coordinates": [55.12518211867934, 62.54662114717497]}}, {"type": "Feature", "properties": {"norad_id": 34004, "name": "COSMOS 2251 DEB", "group": "cosmos-2251-debris", "lat": -72.0255482173748, "lon": 176.44100067409587, "alt_km": 718.4066657261856, "timestamp": "2025-12-22T15:43:49.402898+00:00", "meta": {"OBJECT_NAME": "COSMOS 2251 DEB", "OBJECT_ID": "1993-036GP", "EPOCH": "2025-12-22T06:14:22.980480", "MEAN_MOTION": 14.49089896, "ECCENTRICITY": 0.00334447, "INCLINATION": 74.036, "RA_OF_ASC_NODE": 295.257, "ARG_OF_PERICENTER": 306.4261, "MEAN_ANOMALY": 53.3816, "EPHEMERIS_TYPE": 0, "CLASSIFICATION_TYPE": "U", "NORAD_CAT_ID": 34004, "ELEMENT_SET_NO": 999, "REV_AT_EPOCH": 88168, "BSTAR": 0.0012079127, "MEAN_MOTION_DOT": 4.597e-05, "MEAN_MOTION_DDOT": 0}, "tle": {"line1": "1 34004U 93036GP  25356.25998820  .00004597  00000+0  12079-2 0  9991", "line2": "2 34004  74.0360 295.2570 0033444 306.4261  53.3816 14.49089896881688"}}, "geometry": {"type": "Point", "coordinates": [176.44100067409587, -72.0255482173748]}}, {"type": "Feature", "properties": {"norad_id": 34005, "name": "COSMOS 2251 DEB", "group": "cosmos-2251-debris", "lat": -41.423010568350406, "lon": 29.94989572159842, "alt_km": 763.2469681260654, "timestamp": "2025-12-22T15:43:49.402909+00:00", "meta": {"OBJECT_NAME": "COSMOS 2251 DEB", "OBJECT_ID": "1993-036GQ", "EPOCH": "2025-12-21T22:34:41.009088", "MEAN_MOTION": 14.40310551, "ECCENTRICITY": 0.0021135, "INCLINATION": 74.0435, "RA_OF_ASC_NODE": 196.6478, "ARG_OF_PERICENTER": 313.328, "MEAN_ANOMALY": 166.103, "EPHEMERIS_TYPE": 0, "CLASSIFICATION_TYPE": "U", "NORAD_CAT_ID": 34005, "ELEMENT_SET_NO": 999, "REV_AT_EPOCH": 88511, "BSTAR": 9.4592639e-05, "MEAN_MOTION_DOT": 2.74e-06, "MEAN_MOTION_DDOT": 0}, "tle": {"line1": "1 34005U 93036GQ  25355.94075242  .00000274  00000+0  94593-4 0  9992", "line2": "2 34005  74.0435 196.6478 0021135 313.3280 166.1030 14.40310551885114"}}, "geometry": {"type": "Point", "coordinates": [29.94989572159842, -41.423010568350406]}}, {"type": "Feature", "properties": {"norad_id": 34006, "name": "COSMOS 2251 DEB", "group": "cosmos-2251-debris", "lat": -70.10523233323075, "lon": 71.11548088455847, "alt_km": 593.8962345766431, "timestamp": "2025-12-22T15:43:49.402920+00:00", "meta": {"OBJECT_NAME": "COSMOS 2251 DEB", "OBJECT_ID": "1993-036GR", "EPOCH": "2025-12-21T09:51:01.000800", "MEAN_MOTION": 14.95286049, "ECCENTRICITY": 0.00113596, "INCLINATION": 74.0537, "RA_OF_ASC_NODE": 125.8173, "ARG_OF_PERICENTER": 61.1141, "MEAN_ANOMALY": 1.8389, "EPHEMERIS_TYPE": 0, "CLASSIFICATION_TYPE": "U", "NORAD_CAT_ID": 34006, "ELEMENT_SET_NO": 999, "REV_AT_EPOCH": 88798, "BSTAR": 0.0025287679, "MEAN_MOTION_DOT": 0.00027969, "MEAN_MOTION_DDOT": 0}, "tle": {"line1": "1 34006U 93036GR  25355.41042825  .00027969  00000+0  25288-2 0  9999", "line2": "2 34006  74.0537 125.8173 0011359  61.1141   1.8389 14.95286049887988"}}, "geometry": {"type": "Point", "coordinates": [71.11548088455847, -70.10523233323075]}}, {"type": "Feature", "properties": {"norad_id": 34007, "name": "COSMOS 2251 DEB", "group": "cosmos-2251-debris", "lat": -39.202662760243996, "lon": 161.32555870920024, "alt_km": 699.874533306066, "timestamp": "2025-12-22T15:43:49.402929+00:00", "meta": {"OBJECT_NAME": "COSMOS 2251 DEB", "OBJECT_ID": "1993-036GS", "EPOCH": "2025-12-21T22:20:17.429856", "MEAN_MOTION": 14.64846081, "ECCENTRICITY": 0.00442491, "INCLINATION": 74.0192, "RA_OF_ASC_NODE": 329.2023, "ARG_OF_PERICENTER": 101.1397, "MEAN_ANOMALY": 259.4751, "EPHEMERIS_TYPE": 0, "CLASSIFICATION_TYPE": "U", "NORAD_CAT_ID": 34007, "ELEMENT_SET_NO": 999, "REV_AT_EPOCH": 89214, "BSTAR": 0.0006667756, "MEAN_MOTION_DOT": 3.583e-05, "MEAN_MOTION_DDOT": 0}, "tle": {"line1": "1 34007U 93036GS  25355.93075729  .00003583  00000+0  66678-3 0  9991", "line2": "2 34007  74.0192 329.2023 0044249 101.1397 259.4751 14.64846081892144"}}, "geometry": {"type": "Point", "coordinates": [161.32555870920024, -39.202662760243996]}}, {"type": "Feature", "properties": {"norad_id": 34008, "name": "COSMOS 2251 DEB", "group": "cosmos-2251-debris", "lat": -51.95108834490235, "lon": 153.85155018282205, "alt_km": 782.0533404559683, "timestamp": "2025-12-22T15:43:49.402940+00:00", "meta": {"OBJECT_NAME": "COSMOS 2251 DEB", "OBJECT_ID": "1993-036GT", "EPOCH": "2025-12-22T06:47:58.039296", "MEAN_MOTION": 14.33152619, "ECCENTRICITY": 0.00245978, "INCLINATION": 74.0347, "RA_OF_ASC_NODE": 313.0763, "ARG_OF_PERICENTER": 306.7574, "MEAN_ANOMALY": 169.2952, "EPHEMERIS_TYPE": 0, "CLASSIFICATION_TYPE": "U", "NORAD_CAT_ID": 34008, "ELEMENT_SET_NO": 999, "REV_AT_EPOCH": 88101, "BSTAR": 0.00011548398, "MEAN_MOTION_DOT": 2.92e-06, "MEAN_MOTION_DDOT": 0}, "tle": {"line1": "1 34008U 93036GT  25356.28331064  .00000292  00000+0  11548-3 0  9998", "line2": "2 34008  74.0347 313.0763 0024597 306.7574 169.2952 14.33152619881011"}}, "geometry": {"type": "Point", "coordinates": [153.85155018282205, -51.95108834490235]}}, {"type": "Feature", "properties": {"norad_id": 34009, "name": "COSMOS 2251 DEB", "group": "cosmos-2251-debris", "lat": -73.64335418193261, "lon": -118.40124861291446, "alt_km": 795.0735788829215, "timestamp": "2025-12-22T15:43:49.402950+00:00", "meta": {"OBJECT_NAME": "COSMOS 2251 DEB", "OBJECT_ID": "1993-036GU", "EPOCH": "2025-12-22T04:28:18.329664", "MEAN_MOTION": 14.33229457, "ECCENTRICITY": 0.00268644, "INCLINATION": 74.0376, "RA_OF_ASC_NODE": 319.6727, "ARG_OF_PERICENTER": 26.5364, "MEAN_ANOMALY": 347.8699, "EPHEMERIS_TYPE": 0, "CLASSIFICATION_TYPE": "U", "NORAD_CAT_ID": 34009, "ELEMENT_SET_NO": 999, "REV_AT_EPOCH": 88081, "BSTAR": 0.00013328109, "MEAN_MOTION_DOT": 3.42e-06, "MEAN_MOTION_DDOT": 0}, "tle": {"line1": "1 34009U 93036GU  25356.18632326  .00000342  00000+0  13328-3 0  9997", "line2": "2 34009  74.0376 319.6727 0026864  26.5364 347.8699 14.33229457880813"}}, "geometry": {"type": "Point", "coordinates": [-118.40124861291446, -73.64335418193261]}}, {"type": "Feature", "properties": {"norad_id": 34010, "name": "COSMOS 2251 DEB", "group": "cosmos-2251-debris", "lat": -16.52490164985835, "lon": -102.39070361427434, "alt_km": 508.80703397990055, "timestamp": "2025-12-22T15:43:49.402960+00:00", "meta": {"OBJECT_NAME": "COSMOS 2251 DEB", "OBJECT_ID": "1993-036GV", "EPOCH": "2025-12-22T03:10:14.190816", "MEAN_MOTION": 15.20165114, "ECCENTRICITY": 0.00045263, "INCLINATION": 73.9986, "RA_OF_ASC_NODE": 263.5927, "ARG_OF_PERICENTER": 58.9141, "MEAN_ANOMALY": 301.25, "EPHEMERIS_TYPE": 0, "CLASSIFICATION_TYPE": "U", "NORAD_CAT_ID": 34010, "ELEMENT_SET_NO": 999, "REV_AT_EPOCH": 89428, "BSTAR": 0.004194201, "MEAN_MOTION_DOT": 0.00091954, "MEAN_MOTION_DDOT": 0}, "tle": {"line1": "1 34010U 93036GV  25356.13210869  .00091954  00000+0  41942-2 0  9999", "line2": "2 34010  73.9986 263.5927 0004526  58.9141 301.2500 15.20165114894289"}}, "geometry": {"type": "Point", "coordinates": [-102.39070361427434, -16.52490164985835]}}, {"type": "Feature", "properties": {"norad_id": 34011, "name": "COSMOS 2251 DEB", "group": "cosmos-2251-debris", "lat": -42.53818427948521, "lon": 146.99921429552913, "alt_km": 783.9262378816929, "timestamp": "2025-12-22T15:43:49.402970+00:00", "meta": {"OBJECT_NAME": "COSMOS 2251 DEB", "OBJECT_ID": "1993-036GW", "EPOCH": "2025-12-20T21:03:41.222016", "MEAN_MOTION": 14.41804306, "ECCENTRICITY": 0.0036046, "INCLINATION": 74.0145, "RA_OF_ASC_NODE": 315.0473, "ARG_OF_PERICENTER": 36.2778, "MEAN_ANOMALY": 324.0811, "EPHEMERIS_TYPE": 0, "CLASSIFICATION_TYPE": "U", "NORAD_CAT_ID": 34011, "ELEMENT_SET_NO": 999, "REV_AT_EPOCH": 88033, "BSTAR": 0.00051243, "MEAN_MOTION_DOT": 1.661e-05, "MEAN_MOTION_DDOT": 0}, "tle": {"line1": "1 34011U 93036GW  25354.87756044  .00001661  00000+0  51243-3 0  9991", "line2": "2 34011  74.0145 315.0473 0036046  36.2778 324.0811 14.41804306880339"}}, "geometry": {"type": "Point", "coordinates": [146.99921429552913, -42.53818427948521]}}]}